{
  "type": "FeatureCollection",
  "features": [
    {
      "type": "Feature",
      "properties": {
        "norad_id": 36451,
        "name": "COSMOS 2251 DEB",
        "group": "cosmos-2251-debris",
        "lat": -35.064423868866,
        "lon": 157.46954528139943,
        "alt_km": 782.4022268845711,
        "timestamp": "2025-12-17T23:38:07.250791+00:00",
        "meta_object_name": "COSMOS 2251 DEB",
        "meta_object_id": "1993-036BBA",
        "meta_epoch": "2025-12-08T10:10:07.447584",
        "meta_mean_motion": 14.18724413,
        "meta_eccentricity": 0.01840749,
        "meta_inclination": 73.9539,
        "meta_ra_of_asc_node": 342.9701,
        "meta_arg_of_pericenter": 168.3937,
        "meta_mean_anomaly": 192.1542,
        "meta_ephemeris_type": 0,
        "meta_classification_type": "U",
        "meta_norad_cat_id": 36451,
        "meta_element_set_no": 999,
        "meta_rev_at_epoch": 84164,
        "meta_bstar": 0.0010726423,
        "meta_mean_motion_dot": 2.61e-05,
        "meta_mean_motion_ddot": 0,
        "tle_line1": "1 36451U 93036BBA 25342.42369731  .00002610  00000+0  10726-2 0  9997",
        "tle_line2": "2 36451  73.9539 342.9701 0184074 168.3937 192.1542 14.18724413841646"
      },
      "geometry": {
        "type": "Point",
        "coordinates": [
          157.46954528139943,
          -35.064423868866
        ]
      }
    },
    {
      "type": "Feature",
      "properties": {
        "norad_id": 36453,
        "name": "COSMOS 2251 DEB",
        "group": "cosmos-2251-debris",
        "lat": 26.17504320006096,
        "lon": 150.577704333857,
        "alt_km": 667.8866162138829,
        "timestamp": "2025-12-17T23:38:07.250802+00:00",
        "meta_object_name": "COSMOS 2251 DEB",
        "meta_object_id": "1993-036BBC",
        "meta_epoch": "2025-12-17T04:28:45.600096",
        "meta_mean_motion": 14.52638328,
        "meta_eccentricity": 0.00704745,
        "meta_inclination": 73.923,
        "meta_ra_of_asc_node": 143.9437,
        "meta_arg_of_pericenter": 46.0707,
        "meta_mean_anomaly": 129.2609,
        "meta_ephemeris_type": 0,
        "meta_classification_type": "U",
        "meta_norad_cat_id": 36453,
        "meta_element_set_no": 999,
        "meta_rev_at_epoch": 84532,
        "meta_bstar": 0.00065431102,
        "meta_mean_motion_dot": 2.739e-05,
        "meta_mean_motion_ddot": 0,
        "tle_line1": "1 36453U 93036BBC 25351.18663889  .00002739  00000+0  65431-3 0  9999",
        "tle_line2": "2 36453  73.9230 143.9437 0070474  46.0707 129.2609 14.52638328845327"
      },
      "geometry": {
        "type": "Point",
        "coordinates": [
          150.577704333857,
          26.17504320006096
        ]
      }
    },
    {
      "type": "Feature",
      "properties": {
        "norad_id": 36459,
        "name": "COSMOS 2251 DEB",
        "group": "cosmos-2251-debris",
        "lat": 6.607056879957908,
        "lon": 168.42465454353976,
        "alt_km": 801.969187550786,
        "timestamp": "2025-12-17T23:38:07.250812+00:00",
        "meta_object_name": "COSMOS 2251 DEB",
        "meta_object_id": "1993-036BBJ",
        "meta_epoch": "2025-12-15T06:52:40.994112",
        "meta_mean_motion": 14.2642949,
        "meta_eccentricity": 0.01133967,
        "meta_inclination": 74.0484,
        "meta_ra_of_asc_node": 355.1955,
        "meta_arg_of_pericenter": 90.2624,
        "meta_mean_anomaly": 271.1518,
        "meta_ephemeris_type": 0,
        "meta_classification_type": "U",
        "meta_norad_cat_id": 36459,
        "meta_element_set_no": 999,
        "meta_rev_at_epoch": 7918,
        "meta_bstar": 0.0010918207,
        "meta_mean_motion_dot": 2.788e-05,
        "meta_mean_motion_ddot": 0,
        "tle_line1": "1 36459U 93036BBJ 25349.28658558  .00002788  00000+0  10918-2 0  9993",
        "tle_line2": "2 36459  74.0484 355.1955 0113396  90.2624 271.1518 14.26429490 79186"
      },
      "geometry": {
        "type": "Point",
        "coordinates": [
          168.42465454353976,
          6.607056879957908
        ]
      }
    },
    {
      "type": "Feature",
      "properties": {
        "norad_id": 36470,
        "name": "COSMOS 2251 DEB",
        "group": "cosmos-2251-debris",
        "lat": -52.23742586303115,
        "lon": -138.47984393578875,
        "alt_km": 558.8399240132239,
        "timestamp": "2025-12-17T23:38:07.250821+00:00",
        "meta_object_name": "COSMOS 2251 DEB",
        "meta_object_id": "1993-036BBV",
        "meta_epoch": "2025-12-15T00:13:00.014016",
        "meta_mean_motion": 15.07582269,
        "meta_eccentricity": 0.00222568,
        "meta_inclination": 73.8449,
        "meta_ra_of_asc_node": 249.6845,
        "meta_arg_of_pericenter": 78.1368,
        "meta_mean_anomaly": 282.2316,
        "meta_ephemeris_type": 0,
        "meta_classification_type": "U",
        "meta_norad_cat_id": 36470,
        "meta_element_set_no": 999,
        "meta_rev_at_epoch": 66128,
        "meta_bstar": 0.0018721064,
        "meta_mean_motion_dot": 0.0002872,
        "meta_mean_motion_ddot": 0,
        "tle_line1": "1 36470U 93036BBV 25349.00902794  .00028720  00000+0  18721-2 0  9994",
        "tle_line2": "2 36470  73.8449 249.6845 0022256  78.1368 282.2316 15.07582269661287"
      },
      "geometry": {
        "type": "Point",
        "coordinates": [
          -138.47984393578875,
          -52.23742586303115
        ]
      }
    },
    {
      "type": "Feature",
      "properties": {
        "norad_id": 36528,
        "name": "COSMOS 2251 DEB",
        "group": "cosmos-2251-debris",
        "lat": 4.651313369544246,
        "lon": 136.9985165742314,
        "alt_km": 852.1893160631716,
        "timestamp": "2025-12-17T23:38:07.250831+00:00",
        "meta_object_name": "COSMOS 2251 DEB",
        "meta_object_id": "1993-036BCN",
        "meta_epoch": "2025-12-14T16:44:10.040352",
        "meta_mean_motion": 14.30658136,
        "meta_eccentricity": 0.00847741,
        "meta_inclination": 74.0159,
        "meta_ra_of_asc_node": 141.651,
        "meta_arg_of_pericenter": 190.7529,
        "meta_mean_anomaly": 169.1813,
        "meta_ephemeris_type": 0,
        "meta_classification_type": "U",
        "meta_norad_cat_id": 36528,
        "meta_element_set_no": 999,
        "meta_rev_at_epoch": 64455,
        "meta_bstar": 0.0012089622,
        "meta_mean_motion_dot": 3.261e-05,
        "meta_mean_motion_ddot": 0,
        "tle_line1": "1 36528U 93036BCN 25348.69733843  .00003261  00000+0  12090-2 0  9995",
        "tle_line2": "2 36528  74.0159 141.6510 0084774 190.7529 169.1813 14.30658136644553"
      },
      "geometry": {
        "type": "Point",
        "coordinates": [
          136.9985165742314,
          4.651313369544246
        ]
      }
    },
    {
      "type": "Feature",
      "properties": {
        "norad_id": 36533,
        "name": "COSMOS 2251 DEB",
        "group": "cosmos-2251-debris",
        "lat": 15.390095937082666,
        "lon": -79.55993511677022,
        "alt_km": 725.9737389411621,
        "timestamp": "2025-12-17T23:38:07.250841+00:00",
        "meta_object_name": "COSMOS 2251 DEB",
        "meta_object_id": "1993-036BCT",
        "meta_epoch": "2025-12-16T02:09:50.256000",
        "meta_mean_motion": 14.4982965,
        "meta_eccentricity": 0.00492471,
        "meta_inclination": 74.0118,
        "meta_ra_of_asc_node": 108.5273,
        "meta_arg_of_pericenter": 257.1253,
        "meta_mean_anomaly": 102.4403,
        "meta_ephemeris_type": 0,
        "meta_classification_type": "U",
        "meta_norad_cat_id": 36533,
        "meta_element_set_no": 999,
        "meta_rev_at_epoch": 84533,
        "meta_bstar": 0.00039238166,
        "meta_mean_motion_dot": 1.509e-05,
        "meta_mean_motion_ddot": 0,
        "tle_line1": "1 36533U 93036BCT 25350.09016500  .00001509  00000+0  39238-3 0  9999",
        "tle_line2": "2 36533  74.0118 108.5273 0049247 257.1253 102.4403 14.49829650845335"
      },
      "geometry": {
        "type": "Point",
        "coordinates": [
          -79.55993511677022,
          15.390095937082666
        ]
      }
    },
    {
      "type": "Feature",
      "properties": {
        "norad_id": 36539,
        "name": "COSMOS 2251 DEB",
        "group": "cosmos-2251-debris",
        "lat": -4.738939128913277,
        "lon": -133.46411627768737,
        "alt_km": 679.6023137423399,
        "timestamp": "2025-12-17T23:38:07.250851+00:00",
        "meta_object_name": "COSMOS 2251 DEB",
        "meta_object_id": "1993-036BCZ",
        "meta_epoch": "2025-12-17T12:55:09.514848",
        "meta_mean_motion": 14.59332013,
        "meta_eccentricity": 0.00268888,
        "meta_inclination": 74.0241,
        "meta_ra_of_asc_node": 46.0264,
        "meta_arg_of_pericenter": 190.4815,
        "meta_mean_anomaly": 169.5794,
        "meta_ephemeris_type": 0,
        "meta_classification_type": "U",
        "meta_norad_cat_id": 36539,
        "meta_element_set_no": 999,
        "meta_rev_at_epoch": 84017,
        "meta_bstar": 0.00047790585,
        "meta_mean_motion_dot": 2.242e-05,
        "meta_mean_motion_ddot": 0,
        "tle_line1": "1 36539U 93036BCZ 25351.53830457  .00002242  00000+0  47791-3 0  9998",
        "tle_line2": "2 36539  74.0241  46.0264 0026888 190.4815 169.5794 14.59332013840170"
      },
      "geometry": {
        "type": "Point",
        "coordinates": [
          -133.46411627768737,
          -4.738939128913277
        ]
      }
    }
  ]
}